{
  "norad_id": 51725,
  "name": "STARLINK-3522",
  "history": [
    {
      "epoch": "2026-04-14T13:16:49.230048Z",
      "apogee_km": 540.7702206684016,
      "perigee_km": 538.786162591442,
      "latitude_deg": 7.114060050620279e-06,
      "longitude_deg": 126.18826301340883,
      "height_km": 540.5402968775595,
      "semi_major_axis_km": 6917.9151916299215,
      "eccentricity": 0.0001434,
      "inclination_deg": 53.2165,
      "raan_deg": 168.1215,
      "arg_perigee_deg": 82.2709,
      "mean_anomaly_deg": 277.8446,
      "mean_motion_rev_day": 15.08828614
    },
    {
      "epoch": "2026-04-15T11:32:13.204896Z",
      "apogee_km": 540.6884388773606,
      "perigee_km": 538.8272484486215,
      "latitude_deg": 3.749980769776984e-05,
      "longitude_deg": 147.26084350909466,
      "height_km": 540.564421953243,
      "semi_major_axis_km": 6917.894843662991,
      "eccentricity": 0.00013452,
      "inclination_deg": 53.2164,
      "raan_deg": 163.958,
      "arg_perigee_deg": 84.5092,
      "mean_anomaly_deg": 275.6054,
      "mean_motion_rev_day": 15.08835271
    },
    {
      "epoch": "2026-04-16T09:47:36.918816Z",
      "apogee_km": 540.678500817995,
      "perigee_km": 538.8065226221233,
      "latitude_deg": -4.192326981181031e-05,
      "longitude_deg": 168.3349327080848,
      "height_km": 540.5547258930161,
      "semi_major_axis_km": 6917.879511720059,
      "eccentricity": 0.0001353,
      "inclination_deg": 53.2162,
      "raan_deg": 159.795,
      "arg_perigee_deg": 84.8886,
      "mean_anomaly_deg": 275.226,
      "mean_motion_rev_day": 15.08840287
    },
    {
      "epoch": "2026-04-17T09:38:23.523360Z",
      "apogee_km": 540.6601036645634,
      "perigee_km": 538.7967074389235,
      "latitude_deg": 2.100247512423524e-05,
      "longitude_deg": 165.20126359933013,
      "height_km": 540.5358011854763,
      "semi_major_axis_km": 6917.865405551744,
      "eccentricity": 0.00013468,
      "inclination_deg": 53.2167,
      "raan_deg": 155.3348,
      "arg_perigee_deg": 84.564,
      "mean_anomaly_deg": 275.5506,
      "mean_motion_rev_day": 15.08844902
    },
    {
      "epoch": "2026-04-18T09:29:07.040832Z",
      "apogee_km": 540.6769159517826,
      "perigee_km": 538.5978480390168,
      "latitude_deg": 3.418818130291812e-05,
      "longitude_deg": 162.07775462872758,
      "height_km": 540.6825916355299,
      "semi_major_axis_km": 6917.774381995399,
      "eccentricity": 0.00015027,
      "inclination_deg": 53.2166,
      "raan_deg": 150.8719,
      "arg_perigee_deg": 98.2831,
      "mean_anomaly_deg": 261.8332,
      "mean_motion_rev_day": 15.08874682
    },
    {
      "epoch": "2026-04-19T18:52:14.240352Z",
      "apogee_km": 540.3394350169301,
      "perigee_km": 538.912992242279,
      "latitude_deg": 9.038444179854073e-08,
      "longitude_deg": 13.685043366668955,
      "height_km": 540.5740784931371,
      "semi_major_axis_km": 6917.763213629604,
      "eccentricity": 0.0001031,
      "inclination_deg": 53.2177,
      "raan_deg": 144.6303,
      "arg_perigee_deg": 94.1537,
      "mean_anomaly_deg": 265.9573,
      "mean_motion_rev_day": 15.08878336
    },
    {
      "epoch": "2026-04-20T09:10:43.433760Z",
      "apogee_km": 540.6559413030373,
      "perigee_km": 538.9346213927929,
      "latitude_deg": 4.03932619429925e-05,
      "longitude_deg": 155.79901985152821,
      "height_km": 540.6502252193445,
      "semi_major_axis_km": 6917.932281347915,
      "eccentricity": 0.00012441,
      "inclination_deg": 53.216,
      "raan_deg": 141.9535,
      "arg_perigee_deg": 87.2853,
      "mean_anomaly_deg": 272.8282,
      "mean_motion_rev_day": 15.08823023
    },
    {
      "epoch": "2026-04-21T18:33:49.949856Z",
      "apogee_km": 540.6228757596919,
      "perigee_km": 538.9279872139768,
      "latitude_deg": 1.0562199244246215e-05,
      "longitude_deg": 7.405864760773901,
      "height_km": 540.5932008834981,
      "semi_major_axis_km": 6917.912431486834,
      "eccentricity": 0.0001225,
      "inclination_deg": 53.2161,
      "raan_deg": 135.7086,
      "arg_perigee_deg": 84.7198,
      "mean_anomaly_deg": 275.3934,
      "mean_motion_rev_day": 15.08829517
    },
    {
      "epoch": "2026-04-22T18:24:37.230912Z",
      "apogee_km": 540.6031838834551,
      "perigee_km": 538.9249010905478,
      "latitude_deg": 3.489293285557707e-05,
      "longitude_deg": 4.268936396272539,
      "height_km": 540.5869056128814,
      "semi_major_axis_km": 6917.901042487001,
      "eccentricity": 0.0001213,
      "inclination_deg": 53.2161,
      "raan_deg": 131.248,
      "arg_perigee_deg": 85.0157,
      "mean_anomaly_deg": 275.0974,
      "mean_motion_rev_day": 15.08833243
    },
    {
      "epoch": "2026-04-23T05:32:19.211424Z",
      "apogee_km": 540.5977372367533,
      "perigee_km": 538.9180723538675,
      "latitude_deg": 2.1772242359562948e-05,
      "longitude_deg": -165.1947173236543,
      "height_km": 540.5840560789192,
      "semi_major_axis_km": 6917.89490479531,
      "eccentricity": 0.0001214,
      "inclination_deg": 53.2161,
      "raan_deg": 129.1663,
      "arg_perigee_deg": 85.2449,
      "mean_anomaly_deg": 274.8682,
      "mean_motion_rev_day": 15.08835251
    },
    {
      "epoch": "2026-04-24T06:58:29.149824Z",
      "apogee_km": 540.5595362075692,
      "perigee_km": 538.9186160023182,
      "latitude_deg": -3.3958852929267215e-05,
      "longitude_deg": 167.4611063468164,
      "height_km": 540.559327464438,
      "semi_major_axis_km": 6917.876076104943,
      "eccentricity": 0.0001186,
      "inclination_deg": 53.2159,
      "raan_deg": 124.4082,
      "arg_perigee_deg": 84.7167,
      "mean_anomaly_deg": 275.396,
      "mean_motion_rev_day": 15.08841411
    }
  ]
}